{
  "norad_id": 26575,
  "name": "USA 153",
  "history": [
    {
      "epoch": "2026-03-28T17:03:20.923776Z",
      "apogee_km": 35798.776217997336,
      "perigee_km": 35771.98551874377,
      "latitude_deg": -0.06397684757528974,
      "longitude_deg": 134.44015833473853,
      "height_km": 35797.869912324946,
      "semi_major_axis_km": 42163.51786837055,
      "eccentricity": 0.0003177,
      "inclination_deg": 11.4883,
      "raan_deg": 36.0761,
      "arg_perigee_deg": 15.3101,
      "mean_anomaly_deg": 164.9942,
      "mean_motion_rev_day": 1.00276116
    }
  ]
}